ONEWEB-0589             
1 54655U 22166P   24158.20446961  .00000053  00000+0  95897-4 0  9993
2 54655  87.9301  31.4889 0001029 105.2804 254.8444 13.21825272 74128
ONEWEB-0590             
1 54656U 22166Q   24157.92533657  .00000135  00000+0  29573-3 0  9999
2 54656  87.9303  31.5510 0001858  76.2088 283.9253 13.21826057 73609
ONEWEB-0591             
1 54657U 22166R   24158.16504110  .00000050  00000+0  89490-4 0  9990
2 54657  87.9302  31.5001 0001703  83.2122 276.9206 13.21825082 74125
ONEWEB-0592             
1 54658U 22166S   24157.94110600 -.00000044  00000+0 -13910-3 0  9991
2 54658  87.9298  31.5105 0001544  81.8705 278.2604 13.21825434 73519
ONEWEB-0593             
1 54659U 22166T   24157.88906494  .00000076  00000+0  15374-3 0  9998
2 54659  87.9298  31.5457 0001592  84.1404 275.9911 13.21825367 73616
ONEWEB-0594             
1 54660U 22166U   24158.21077724  .00000118  00000+0  25443-3 0  9998
2 54660  87.9305  31.4813 0001964  85.8431 274.2927 13.21825064 74134
ONEWEB-0595             
1 54661U 22166V   24157.65880725 -.00000425  00000+0 -10604-2 0  9994
2 54661  87.9300  31.5785 0001998  76.6163 283.5193 13.21825257 73575
ONEWEB-0596             
1 54662U 22166W   24157.93479774 -.00000004  00000+0 -40192-4 0  9994
2 54662  87.9303  31.5289 0001496  79.1462 280.9840 13.21825406 73612
ONEWEB-0597             
1 54663U 22166X   24157.91586932  .00000092  00000+0  19158-3 0  9990
2 54663  87.9308  31.5344 0001638  91.0958 269.0363 13.21824653 73612
ONEWEB-0600             
1 54664U 22166Y   24157.89853010  .00000117  00000+0  25219-3 0  9995
2 54664  87.9298  31.5790 0001772  88.6562 271.4775 13.21825026 73583
ONEWEB-0601             
1 54665U 22166Z   24157.89063885  .00000102  00000+0  21470-3 0  9998
2 54665  87.9305  31.5438 0001320  86.8692 273.2593 13.21825108 73775
ONEWEB-0602             
1 54666U 22166AA  24157.93164580  .00000074  00000+0  14769-3 0  9999
2 54666  87.9304  31.5396 0001539  90.6010 269.5300 13.21824196 73621
ONEWEB-0603             
1 54667U 22166AB  24157.93636804 -.00000013  00000+0 -62769-4 0  9992
2 54667  87.9306  31.5399 0001501  91.3490 268.7816 13.21823680 73558
ONEWEB-0604             
1 54668U 22166AC  24157.92374218 -.00000193  00000+0 -49927-3 0  9999
2 54668  87.9300  31.5229 0002004  91.1264 269.0100 13.21825498 73516
ONEWEB-0605             
1 54669U 22166AD  24157.91745066  .00000098  00000+0  20686-3 0  9995
2 54669  87.9299  31.5570 0001191  82.4961 277.6308 13.21824855 73584
ONEWEB-0606             
1 54670U 22166AE  24157.93953143 -.00000061  00000+0 -17969-3 0  9998
2 54670  87.9304  31.5423 0002002  79.6449 280.4911 13.21824573 73647
ONEWEB-0607             
1 54671U 22166AF  24157.90641726  .00000131  00000+0  28536-3 0  9995
2 54671  87.9302  31.5268 0001666  89.9175 270.2150 13.21824966 73613
ONEWEB-0608             
1 54672U 22166AG  24158.21550906  .00000107  00000+0  22715-3 0  9996
2 54672  87.9308  31.4863 0001277  89.1461 270.9819 13.21824940 74126
ONEWEB-0610             
1 54673U 22166AH  24157.89380006  .00000112  00000+0  23870-3 0  9991
2 54673  87.9300  31.5458 0001379  86.2666 273.8626 13.21824796 73528
ONEWEB-0611             
1 54674U 22166AJ  24158.19027901  .00000008  00000+0 -12158-4 0  9991
2 54674  87.9300  31.4859 0002261  81.7593 278.3798 13.21825350 74026
ONEWEB-0612             
1 54675U 22166AK  24157.90010679  .00000108  00000+0  23070-3 0  9998
2 54675  87.9300  31.5265 0001556  83.6070 276.5242 13.21824761 73507
ONEWEB-0615             
1 54676U 22166AL  24157.65409194  .00000034  00000+0  51388-4 0  9997
2 54676  87.9299  31.6001 0001787  90.5348 269.5991 13.21825670 73485
ONEWEB-0655             
1 54677U 22166AM  24157.93007604  .00000042  00000+0  69825-4 0  9993
2 54677  87.9301  31.5471 0001876  99.6654 260.4692 13.21823539 73513
ONEWEB-0659             
1 54678U 22166AN  24157.94741048  .00000002  00000+0 -27626-4 0  9992
2 54678  87.9299  31.5505 0001956  77.4940 282.6413 13.21826049 73605
ONEWEB-0685             
1 54679U 22166AP  24157.94899524  .00000018  00000+0  12397-4 0  9991
2 54679  87.9301  31.5395 0001691  90.5958 269.5369 13.21825373 73498
ONEWEB-0712             
1 54680U 22166AQ  24157.89254742  .00000105  00000+0  24038-3 0  9995
2 54680  87.9109  16.3563 0002267  84.9818 275.1572 13.16591889 74515
ONEWEB-0714             
1 54681U 22166AR  24157.87958565  .00000051  00000+0  91593-4 0  9999
2 54681  87.9303  31.5393 0001686  92.1495 267.9832 13.21827041 73603
ONEWEB-0532             
1 55140U 23004A   24157.74381309  .00000027  00000+0  35839-4 0  9998
2 55140  87.9162 153.4498 0001579  75.4334 284.6972 13.17651995 69945
ONEWEB-0533             
1 55141U 23004B   24157.67005650 -.00000362  00000+0 -10400-2 0  9992
2 55141  87.8937 138.2790 0002049  90.8700 269.2664 13.12497268 70790
ONEWEB-0541             
1 55142U 23004C   24158.11176928  .00000232  00000+0  61769-3 0  9999
2 55142  87.8961 168.5078 0002000  89.9624 270.1733 13.11413692 68821
ONEWEB-0543             
1 55143U 23004D   24157.85082863  .00000069  00000+0  14111-3 0  9991
2 55143  87.9130 123.1257 0002387  90.2569 269.8837 13.18688132 71990
ONEWEB-0544             
1 55144U 23004E   24157.84449912  .00000060  00000+0  12007-3 0  9996
2 55144  87.9132 123.1119 0002137  80.5103 279.6271 13.18688570 71996
ONEWEB-0560             
1 55145U 23004F   24157.91405589 -.00000016  00000+0 -73271-4 0  9991
2 55145  87.9135 123.0485 0002541  83.1445 276.9976 13.18688119 72017
ONEWEB-0565             
1 55146U 23004G   24157.90773339  .00000050  00000+0  94553-4 0  9994
2 55146  87.9128 123.1285 0002356  66.8202 293.3178 13.18683724 72005
ONEWEB-0567             
1 55147U 23004H   24157.59791903 -.00000007  00000+0 -49552-4 0  9990
2 55147  87.9133 123.1434 0002456  74.6752 285.4651 13.18685571 71960
ONEWEB-0569             
1 55148U 23004J   24157.57065475 -.00000103  00000+0 -31744-3 0  9997
2 55148  87.8925 107.8168 0003110  71.4171 288.7295 13.13469132 72824
ONEWEB-0570             
1 55149U 23004K   24158.19227972  .00000005  00000+0 -20777-4 0  9994
2 55149  87.9135 123.0218 0001605  63.5829 296.5467 13.18684493 72039
ONEWEB-0571             
1 55150U 23004L   24158.18596008  .00000057  00000+0  11135-3 0  9997
2 55150  87.9136 123.0287 0002650  60.2609 299.8787 13.18686154 72047
ONEWEB-0572             
1 55151U 23004M   24157.69952290  .00000035  00000+0  56775-4 0  9998
2 55151  87.9161 153.4663 0001952  82.1580 277.9773 13.17651245 69833
ONEWEB-0573             
1 55152U 23004N   24157.87611684  .00000058  00000+0  11439-3 0  9990
2 55152  87.9130 123.1118 0002318  57.8252 302.3104 13.18688103 71996
ONEWEB-0588             
1 55153U 23004P   24157.86978778 -.00000053  00000+0 -16774-3 0  9994
2 55153  87.9136 123.0790 0001807  67.9495 292.1829 13.18687935 71993
ONEWEB-0598             
1 55154U 23004Q   24157.78455091  .00000562  00000+0  15505-2 0  9997
2 55154  87.8962 168.6123 0002502  74.3532 285.7872 13.11417265 68725
ONEWEB-0599             
1 55155U 23004R   24157.96371334  .00000048  00000+0  90865-4 0  9998
2 55155  87.9166 153.3968 0002221  87.2831 272.8555 13.17650808 69874
ONEWEB-0614             
1 55156U 23004S   24157.77945662  .00000413  00000+0  11281-2 0  9998
2 55156  87.8965 168.6169 0001625  94.4091 265.7222 13.11417182 68666
ONEWEB-0616             
1 55157U 23004T   24157.93049392  .00000029  00000+0  40719-4 0  9995
2 55157  87.9162 153.4123 0003142 101.2897 258.8588 13.17651254 70089
ONEWEB-0617             
1 55158U 23004U   24158.07277020 -.00000118  00000+0 -36893-3 0  9991
2 55158  87.8958 168.5545 0001600  83.2180 276.9130 13.11418007 68732
ONEWEB-0618             
1 55159U 23004V   24157.53745884  .00000358  00000+0  13997-3 0  9994
2 55159  86.9059  97.4672 0012290 331.9292  28.1236 14.26810878 73683
ONEWEB-0619             
1 55160U 23004W   24157.96214023  .00000025  00000+0  31724-4 0  9999
2 55160  87.9162 153.3824 0002199 103.8818 256.2559 13.17646526 69985
ONEWEB-0620             
1 55161U 23004X   24157.76248206 -.00000342  00000+0 -10016-2 0  9991
2 55161  87.8962 168.6257 0001795  77.2272 282.9056 13.11416086 68652
ONEWEB-0621             
1 55162U 23004Y   24158.09482240  .00000621  00000+0  17151-2 0  9992
2 55162  87.8959 168.5296 0001883  99.0870 261.0471 13.11418716 68702
ONEWEB-0622             
1 55163U 23004Z   24157.79472030  .00000496  00000+0  13639-2 0  9992
2 55163  87.8959 168.6047 0001162  75.1924 284.9332 13.11417245 68620
ONEWEB-0623             
1 55164U 23004AA  24157.95738446  .00000025  00000+0  31370-4 0  9999
2 55164  87.9163 153.4370 0001182  90.8869 269.2398 13.17650871 69971
ONEWEB-0624             
1 55165U 23004AB  24157.71267517  .00000450  00000+0  12146-2 0  9990
2 55165  87.8937 138.2790 0001817  87.4472 272.6865 13.12564346 70799
ONEWEB-0625             
1 55166U 23004AC  24157.94633423  .00000006  00000+0 -16972-4 0  9990
2 55166  87.9163 153.4378 0002211  96.3678 263.7706 13.17647678 69966
ONEWEB-0626             
1 55167U 23004AD  24157.93684062  .00000038  00000+0  63524-4 0  9994
2 55167  87.9161 153.4406 0002130  72.2678 287.8686 13.17647955 69962
ONEWEB-0627             
1 55168U 23004AE  24157.92575646  .00000053  00000+0  10373-3 0  9991
2 55168  87.9163 153.4441 0001292  77.6893 282.4383 13.17647636 69961
ONEWEB-0628             
1 55169U 23004AF  24157.92077427  .00000210  00000+0  55039-3 0  9999
2 55169  87.8934 138.2258 0001206  99.3166 260.8098 13.12303573 70805
ONEWEB-0629             
1 55170U 23004AG  24157.92100385  .00000034  00000+0  55131-4 0  9999
2 55170  87.9158 153.4361 0001827 102.0167 258.1169 13.17646870 69961
ONEWEB-0631             
1 55171U 23004AH  24157.63586079  .00000014  00000+0  35832-5 0  9991
2 55171  87.9141 123.0312 0002039  64.8895 295.2448 13.18685105 71940
